start=new Date('2021-12-18T00:00:00.000Z').valueOf();
sats=[{"TLE_LINE1":"1 48439U 21040M   21351.78779881  .00000747  00000-0  69088-4 0  9995","EPOCH":"2021-12-17T18:54:25.817184","INCLINATION":"53.0551","COUNTRY_CODE":"US","APOAPSIS":"548.766","TIME_SYSTEM":"UTC","LAUNCH_DATE":"2021-05-09","MEAN_MOTION":"15.06399239","EPHEMERIS_TYPE":"0","BSTAR":"0.00006908800000","PERIOD":"95.592","MEAN_MOTION_DDOT":"0.0000000000000","MEAN_MOTION_DOT":"0.00000747","SITE":"AFETR","DECAY_DATE":null,"ELEMENT_SET_NO":"999","REF_FRAME":"TEME","ECCENTRICITY":"0.00022380","GP_ID":"191902990","OBJECT_TYPE":"PAYLOAD","TLE_LINE2":"2 48439  53.0551 267.9834 0002238  64.6841 295.4379 15.06399239 34072","FILE":"3243045","SEMIMAJOR_AXIS":"6925.351","OBJECT_NAME":"STARLINK-2583","CLASSIFICATION_TYPE":"U","RCS_SIZE":"LARGE","ARG_OF_PERICENTER":"64.6841","OBJECT_ID":"2021-040M","RA_OF_ASC_NODE":"267.9834","PERIAPSIS":"545.666","MEAN_ELEMENT_THEORY":"SGP4","NORAD_CAT_ID":"48439","REV_AT_EPOCH":"3407","CENTER_NAME":"EARTH","MEAN_ANOMALY":"295.4379"},{"SITE":"AFETR","DECAY_DATE":null,"ELEMENT_SET_NO":"999","REF_FRAME":"TEME","ECCENTRICITY":"0.00021900","BSTAR":"0.00021269000000","EPHEMERIS_TYPE":"0","PERIOD":"95.592","MEAN_MOTION_DDOT":"0.0000000000000","MEAN_MOTION_DOT":"0.00002888","TIME_SYSTEM":"UTC","LAUNCH_DATE":"2021-05-09","MEAN_MOTION":"15.06402399","INCLINATION":"53.0564","EPOCH":"2021-12-17T12:26:58.180416","TLE_LINE1":"1 48440U 21040N   21351.51872894  .00002888  00000-0  21269-3 0  9992","COUNTRY_CODE":"US","APOAPSIS":"548.723","REV_AT_EPOCH":"3403","NORAD_CAT_ID":"48440","CENTER_NAME":"EARTH","MEAN_ANOMALY":"296.4401","PERIAPSIS":"545.690","MEAN_ELEMENT_THEORY":"SGP4","CLASSIFICATION_TYPE":"U","OBJECT_ID":"2021-040N","ARG_OF_PERICENTER":"63.6812","RCS_SIZE":"LARGE","RA_OF_ASC_NODE":"269.1783","GP_ID":"191903742","OBJECT_TYPE":"PAYLOAD","SEMIMAJOR_AXIS":"6925.341","TLE_LINE2":"2 48440  53.0564 269.1783 0002190  63.6812 296.4401 15.06402399 34034","FILE":"3243045","OBJECT_NAME":"STARLINK-2682"},{"SITE":"AFETR","ELEMENT_SET_NO":"999","DECAY_DATE":null,"REF_FRAME":"TEME","ECCENTRICITY":"0.00021940","EPHEMERIS_TYPE":"0","BSTAR":"0.00006562200000","PERIOD":"95.592","MEAN_MOTION_DDOT":"0.0000000000000","MEAN_MOTION_DOT":"0.00000696","TIME_SYSTEM":"UTC","LAUNCH_DATE":"2021-05-09","MEAN_MOTION":"15.06403015","EPOCH":"2021-12-17T17:08:16.845504","TLE_LINE1":"1 48441U 21040P   21351.71408386  .00000696  00000-0  65622-4 0  9993","INCLINATION":"53.0564","COUNTRY_CODE":"US","APOAPSIS":"548.724","NORAD_CAT_ID":"48441","REV_AT_EPOCH":"3406","CENTER_NAME":"EARTH","MEAN_ANOMALY":"289.5850","PERIAPSIS":"545.685","MEAN_ELEMENT_THEORY":"SGP4","CLASSIFICATION_TYPE":"U","ARG_OF_PERICENTER":"70.5375","RCS_SIZE":"LARGE","OBJECT_ID":"2021-040P","RA_OF_ASC_NODE":"268.2990","GP_ID":"191903741","OBJECT_TYPE":"PAYLOAD","FILE":"3243045","TLE_LINE2":"2 48441  53.0564 268.2990 0002194  70.5375 289.5850 15.06403015 34060","SEMIMAJOR_AXIS":"6925.339","OBJECT_NAME":"STARLINK-2702"},{"PERIAPSIS":"545.384","MEAN_ELEMENT_THEORY":"SGP4","NORAD_CAT_ID":"48442","REV_AT_EPOCH":"3407","CENTER_NAME":"EARTH","MEAN_ANOMALY":"295.2297","GP_ID":"191902740","OBJECT_TYPE":"PAYLOAD","TLE_LINE2":"2 48442  53.0551 268.0110 0002644  64.8966 295.2297 15.06399665 34076","SEMIMAJOR_AXIS":"6925.350","FILE":"3243045","OBJECT_NAME":"STARLINK-2644","CLASSIFICATION_TYPE":"U","ARG_OF_PERICENTER":"64.8966","RCS_SIZE":"LARGE","OBJECT_ID":"2021-040Q","RA_OF_ASC_NODE":"268.0110","EPHEMERIS_TYPE":"0","BSTAR":"0.00008016600000","PERIOD":"95.592","MEAN_MOTION_DOT":"0.00000912","MEAN_MOTION_DDOT":"0.0000000000000","SITE":"AFETR","ELEMENT_SET_NO":"999","DECAY_DATE":null,"REF_FRAME":"TEME","ECCENTRICITY":"0.00026440","TLE_LINE1":"1 48442U 21040Q   21351.77674363  .00000912  00000-0  80166-4 0  9991","EPOCH":"2021-12-17T18:38:30.649632","INCLINATION":"53.0551","COUNTRY_CODE":"US","APOAPSIS":"549.046","TIME_SYSTEM":"UTC","LAUNCH_DATE":"2021-05-09","MEAN_MOTION":"15.06399665"},{"MEAN_MOTION":"15.06402352","TIME_SYSTEM":"UTC","LAUNCH_DATE":"2021-05-09","APOAPSIS":"548.951","INCLINATION":"53.0564","TLE_LINE1":"1 48443U 21040R   21351.77305515  .00000227  00000-0  34190-4 0  9997","EPOCH":"2021-12-17T18:33:11.964960","COUNTRY_CODE":"US","REF_FRAME":"TEME","ECCENTRICITY":"0.00025190","SITE":"AFETR","DECAY_DATE":null,"ELEMENT_SET_NO":"999","MEAN_MOTION_DOT":"0.00000227","MEAN_MOTION_DDOT":"0.0000000000000","EPHEMERIS_TYPE":"0","BSTAR":"0.00003419000000","PERIOD":"95.592","RA_OF_ASC_NODE":"268.0296","CLASSIFICATION_TYPE":"U","OBJECT_ID":"2021-040R","ARG_OF_PERICENTER":"66.2161","RCS_SIZE":"LARGE","FILE":"3243045","TLE_LINE2":"2 48443  53.0564 268.0296 0002519  66.2161 293.9092 15.06402352 34076","SEMIMAJOR_AXIS":"6925.341","OBJECT_NAME":"STARLINK-2663","GP_ID":"191903490","OBJECT_TYPE":"PAYLOAD","MEAN_ANOMALY":"293.9092","REV_AT_EPOCH":"3407","NORAD_CAT_ID":"48443","CENTER_NAME":"EARTH","PERIAPSIS":"545.462","MEAN_ELEMENT_THEORY":"SGP4"},{"CLASSIFICATION_TYPE":"U","OBJECT_ID":"2021-040S","RCS_SIZE":"LARGE","ARG_OF_PERICENTER":"66.7565","RA_OF_ASC_NODE":"268.0485","GP_ID":"191904756","OBJECT_TYPE":"PAYLOAD","TLE_LINE2":"2 48444  53.0547 268.0485 0002700  66.7565 293.3708 15.06398709 34071","FILE":"3243045","SEMIMAJOR_AXIS":"6925.353","OBJECT_NAME":"STARLINK-2645","REV_AT_EPOCH":"3407","NORAD_CAT_ID":"48444","CENTER_NAME":"EARTH","MEAN_ANOMALY":"293.3708","PERIAPSIS":"545.348","MEAN_ELEMENT_THEORY":"SGP4","TIME_SYSTEM":"UTC","LAUNCH_DATE":"2021-05-09","MEAN_MOTION":"15.06398709","INCLINATION":"53.0547","EPOCH":"2021-12-17T18:27:54.114048","TLE_LINE1":"1 48444U 21040S   21351.76937632  .00000739  00000-0  68555-4 0  9998","COUNTRY_CODE":"US","APOAPSIS":"549.087","SITE":"AFETR","ELEMENT_SET_NO":"999","DECAY_DATE":null,"REF_FRAME":"TEME","ECCENTRICITY":"0.00027000","BSTAR":"0.00006855500000","EPHEMERIS_TYPE":"0","PERIOD":"95.592","MEAN_MOTION_DDOT":"0.0000000000000","MEAN_MOTION_DOT":"0.00000739"},{"MEAN_MOTION_DDOT":"0.0000000000000","MEAN_MOTION_DOT":"0.00002270","BSTAR":"0.00017125000000","EPHEMERIS_TYPE":"0","PERIOD":"95.592","REF_FRAME":"TEME","ECCENTRICITY":"0.00024870","SITE":"AFETR","DECAY_DATE":null,"ELEMENT_SET_NO":"999","APOAPSIS":"548.927","EPOCH":"2021-12-17T13:35:58.042464","TLE_LINE1":"1 48445U 21040T   21351.56664401  .00002270  00000-0  17125-3 0  9996","INCLINATION":"53.0564","COUNTRY_CODE":"US","MEAN_MOTION":"15.06402778","TIME_SYSTEM":"UTC","LAUNCH_DATE":"2021-05-09","PERIAPSIS":"545.483","MEAN_ELEMENT_THEORY":"SGP4","MEAN_ANOMALY":"297.6776","NORAD_CAT_ID":"48445","REV_AT_EPOCH":"3404","CENTER_NAME":"EARTH","TLE_LINE2":"2 48445  53.0564 268.9645 0002487  62.4465 297.6776 15.06402778 34043","SEMIMAJOR_AXIS":"6925.340","FILE":"3243045","OBJECT_NAME":"STARLINK-2634","GP_ID":"191903743","OBJECT_TYPE":"PAYLOAD","RA_OF_ASC_NODE":"268.9645","CLASSIFICATION_TYPE":"U","RCS_SIZE":"LARGE","ARG_OF_PERICENTER":"62.4465","OBJECT_ID":"2021-040T"},{"DECAY_DATE":null,"ELEMENT_SET_NO":"999","SITE":"AFETR","ECCENTRICITY":"0.00025820","REF_FRAME":"TEME","PERIOD":"95.592","EPHEMERIS_TYPE":"0","BSTAR":"0.00002203600000","MEAN_MOTION_DDOT":"0.0000000000000","MEAN_MOTION_DOT":"0.00000046","LAUNCH_DATE":"2021-05-09","TIME_SYSTEM":"UTC","MEAN_MOTION":"15.06402892","COUNTRY_CODE":"US","TLE_LINE1":"1 48446U 21040U   21351.76199889  .00000046  00000-0  22036-4 0  9999","EPOCH":"2021-12-17T18:17:16.704096","INCLINATION":"53.0553","APOAPSIS":"548.993","CENTER_NAME":"EARTH","NORAD_CAT_ID":"48446","REV_AT_EPOCH":"3407","MEAN_ANOMALY":"298.4535","MEAN_ELEMENT_THEORY":"SGP4","PERIAPSIS":"545.417","RCS_SIZE":"LARGE","ARG_OF_PERICENTER":"61.6714","OBJECT_ID":"2021-040U","CLASSIFICATION_TYPE":"U","RA_OF_ASC_NODE":"268.0814","OBJECT_TYPE":"PAYLOAD","GP_ID":"191903946","OBJECT_NAME":"STARLINK-2247","TLE_LINE2":"2 48446  53.0553 268.0814 0002582  61.6714 298.4535 15.06402892 34077","SEMIMAJOR_AXIS":"6925.340","FILE":"3243045"},{"GP_ID":"191904553","OBJECT_TYPE":"PAYLOAD","TLE_LINE2":"2 48447  53.0559 268.9906 0002322  62.8037 297.3188 15.06394778 34040","FILE":"3243045","SEMIMAJOR_AXIS":"6925.365","OBJECT_NAME":"STARLINK-2269","CLASSIFICATION_TYPE":"U","RCS_SIZE":"LARGE","ARG_OF_PERICENTER":"62.8037","OBJECT_ID":"2021-040V","RA_OF_ASC_NODE":"268.9906","PERIAPSIS":"545.621","MEAN_ELEMENT_THEORY":"SGP4","NORAD_CAT_ID":"48447","REV_AT_EPOCH":"3404","CENTER_NAME":"EARTH","MEAN_ANOMALY":"297.3188","EPOCH":"2021-12-17T13:25:21.659808","TLE_LINE1":"1 48447U 21040V   21351.55927847  .00000503  00000-0  52690-4 0  9997","INCLINATION":"53.0559","COUNTRY_CODE":"US","APOAPSIS":"548.838","TIME_SYSTEM":"UTC","LAUNCH_DATE":"2021-05-09","MEAN_MOTION":"15.06394778","BSTAR":"0.00005269000000","EPHEMERIS_TYPE":"0","PERIOD":"95.592","MEAN_MOTION_DDOT":"0.0000000000000","MEAN_MOTION_DOT":"0.00000503","SITE":"AFETR","ELEMENT_SET_NO":"999","DECAY_DATE":null,"REF_FRAME":"TEME","ECCENTRICITY":"0.00023220"},{"LAUNCH_DATE":"2021-05-09","TIME_SYSTEM":"UTC","MEAN_MOTION":"15.06400407","COUNTRY_CODE":"US","EPOCH":"2021-12-17T18:47:46.061664","TLE_LINE1":"1 48448U 21040W   21351.78317201  .00000436  00000-0  48215-4 0  9993","INCLINATION":"53.0564","APOAPSIS":"548.908","ELEMENT_SET_NO":"999","DECAY_DATE":null,"SITE":"AFETR","ECCENTRICITY":"0.00024480","REF_FRAME":"TEME","PERIOD":"95.592","BSTAR":"0.00004821500000","EPHEMERIS_TYPE":"0","MEAN_MOTION_DDOT":"0.0000000000000","MEAN_MOTION_DOT":"0.00000436","ARG_OF_PERICENTER":"63.7754","RCS_SIZE":"LARGE","OBJECT_ID":"2021-040W","CLASSIFICATION_TYPE":"U","RA_OF_ASC_NODE":"267.9881","OBJECT_TYPE":"PAYLOAD","GP_ID":"191905160","OBJECT_NAME":"STARLINK-2632","TLE_LINE2":"2 48448  53.0564 267.9881 0002448  63.7754 296.3486 15.06400407 34073","FILE":"3243045","SEMIMAJOR_AXIS":"6925.347","CENTER_NAME":"EARTH","NORAD_CAT_ID":"48448","REV_AT_EPOCH":"3407","MEAN_ANOMALY":"296.3486","MEAN_ELEMENT_THEORY":"SGP4","PERIAPSIS":"545.517"}];
